SHIELDS 1               
1 43850U 18104B   22277.18091699  .00007726  00000+0  31410-3 0  9990
2 43850  85.0307 340.0478 0012417 216.9864 143.0524 15.24297934211067
STF-1                   
1 43852U 18104D   22276.42466476  .00019131  00000+0  68463-3 0  9998
2 43852  85.0327 340.5018 0010686 231.3250 128.7041 15.28607338211029
ZACUBE-2                
1 43907U 18111AH  22277.58133402  .00011075  00000+0  38997-3 0  9993
2 43907  97.1720 160.0135 0021023  54.5572  36.0108 15.29259821209961
LUME 1                  
1 43908U 18111AJ  22276.46592345  .00018620  00000+0  59569-3 0  9996
2 43908  97.1738 160.9086 0019386  52.2928 308.0068 15.32276250209926
AOBA VELOX-IV           
1 43940U 19003J   22277.58569625  .00056330  00000+0  12722-2 0  9991
2 43940  97.1179 310.5390 0017535 109.1813 251.1335 15.42847190206921
MOVE-IIB                
1 44398U 19038N   22277.46725392  .00019116  00000+0  85917-3 0  9997
2 44398  97.6413 248.0334 0023301 107.9877 252.3909 15.20936488179599
SONATE                  
1 44400U 19038Q   22276.90535476  .00006899  00000+0  36497-3 0  9994
2 44400  97.6496 246.0256 0024711 116.3951 243.9821 15.15516251179357
LUCKY-7                 
1 44406U 19038W   22276.43636408  .00010526  00000+0  53765-3 0  9994
2 44406  97.6513 246.1947 0024132 115.8165 244.5560 15.16626918179326
BEESAT 9                
1 44412U 19038AC  22276.65354806  .00016016  00000+0  77611-3 0  9990
2 44412  97.6479 246.9046 0021697 117.1941 243.1508 15.18411127179101
JAISAT-1                
1 44419U 19038F   22276.86909479  .00018755  00000+0  89588-3 0  9990
2 44419  97.6478 248.0438 0020703 113.8236 246.5171 15.18892321179508
DUCHIFAT-3              
1 44854U 19089C   22277.13130209  .00005451  00000+0  41638-3 0  9990
2 44854  36.9651 175.7603 0007814  11.9490 103.5593 15.01746127154279
EYESAT-NANO             
1 44877U 19092E   22276.49679341  .00019411  00000+0  78908-3 0  9993
2 44877  97.4649 100.2676 0010654 343.9048  16.1849 15.24537497154815
ORBITAL FACTORY 2 (OF-2)
1 45113U 19071C   22277.40861701  .00062757  00000+0  10512-2 0  9996
2 45113  51.6349 241.2218 0007383 197.0135 163.0608 15.51225779150252
M2 PATHFINDER           
1 45727U 20037E   22277.05538941  .00002714  00000+0  27087-3 0  9992
2 45727  97.7418  90.6000 0013345  39.6170 320.6006 14.92292726123029
NETSAT-4                
1 46504U 20068U   22276.77855617  .00005232  00000+0  38283-3 0  9998
2 46504  97.7275 216.4252 0011637 326.3295  33.7195 15.03975217110323
NETSAT-3                
1 46505U 20068V   22276.79712060  .00003598  00000+0  26529-3 0  9998
2 46505  97.7287 216.3501 0010565 336.5265  23.5552 15.03911535110330
NETSAT-1                
1 46506U 20068W   22276.55156589  .00004066  00000+0  29963-3 0  9997
2 46506  97.7293 216.0227 0009344 353.5289   6.5848 15.03859711110299
NETSAT-2                
1 46507U 20068X   22276.56241423  .00004360  00000+0  32109-3 0  9994
2 46507  97.7287 216.0234 0008614 359.6787   0.4437 15.03850255110246
SAI-1 NANOCONNECT-2     
1 47701U 21015C   22276.20590130  .00024525  00000+0  85610-3 0  9997
2 47701  97.4149 352.7182 0011860  76.0053 284.2505 15.29520600 88675
WILDTRACKCUBE-SIMBA     
1 47941U 21022K   22277.63465811  .00004423  00000+0  29079-3 0  9998
2 47941  97.5164 174.7987 0022101 129.0993 318.2410 15.07895326 84446
BEESAT-6                
1 47957U 21022AB  22277.48911628  .00009001  00000+0  55667-3 0  9999
2 47957  97.5171 174.9770 0023014 131.3090  42.9531 15.09838562 84245
SMOG-1                  
1 47964U 21022AJ  22276.27920747  .00015095  00000+0  89493-3 0  9999
2 47964  97.5161 175.0794 0019487 122.3244 237.9876 15.11303798 83169
MMSATS-1                
1 47976U 98067SJ  22277.59580781  .00041987  00000+0  43347-3 0  9998
2 47976  51.6380 134.9050 0001930 118.8620 335.5175 15.64346342 87315
BCCSAT-1                
1 48041U 21022AK  22276.46074200  .00012500  00000+0  76278-3 0  9996
2 48041  97.5171 174.7404 0016377 119.5882 240.6982 15.10348169 83138
BEESAT-5                
1 48083U 21022AM  22277.19925861  .00011425  00000+0  70035-3 0  9991
2 48083  97.5119 174.7086 0021352 131.0940  20.2467 15.10123953 83339
BEESAT-7                
1 48084U 21022AN  22277.27228063  .00010355  00000+0  63823-3 0  9999
2 48084  97.5144 174.7798 0020813 128.7050   0.6141 15.09962901 82932
BEESAT-8                
1 48085U 21022AP  22277.48780810  .00007834  00000+0  48654-3 0  9999
2 48085  97.5170 174.9754 0022234 130.1560  44.6238 15.09742409 83528
RAMSAT                  
1 48850U 98067SL  22276.62209895  .00799654  32809-3  11966-2 0  9995
2 48850  51.6277 116.3652 0007385 251.8981 108.1227 16.04116482 74449
LEDSAT                  
1 49069U 21073D   22277.46238882  .00008391  00000+0  52455-3 0  9996
2 49069  97.5155 348.1916 0025015 281.4768  78.3652 15.09428462 62272
BINAR-1                 
1 49272U 98067SR  22273.78029111  .16499517  12645-4  25009-3 0  9992
2 49272  51.6113 132.4675 0005461 279.4228  80.6185 16.48270640 56367
HSU-SAT1                
1 53462U 98067UB  22276.93301927  .00069593  00000+0  10360-2 0  9996
2 53462  51.6394 156.9166 0005110 317.6959  42.3637 15.54468152  8173
FUTABA                  
1 53463U 98067UC  22276.92245850  .00083256  00000+0  12042-2 0  9999
2 53463  51.6389 156.8460 0004944 314.1053  45.9531 15.55177913  8170
TUMNANOSAT              
1 53464U 98067UD  22277.04065678  .00098793  00000+0  13883-2 0  9998
2 53464  51.6385 156.1351 0004752 310.5873  49.4704 15.55884711  8190
BEIJING 1               
1 28890U 05043A   22277.53843848  .00000444  00000+0  98754-4 0  9990
2 28890  98.1313  38.0130 0015114 188.0313 172.0654 14.61502403903075
HJ-1A                   
1 33320U 08041A   22277.56171161  .00000441  00000+0  67812-4 0  9998
2 33320  97.6699 305.4663 0019731 235.2052 124.7307 14.77927856758501
HJ-1B                   
1 33321U 08041B   22277.58077157  .00000984  00000+0  14252-3 0  9992
2 33321  97.6864 309.2691 0032767 255.0069 104.7537 14.77902311758503
YAOGAN 4                
1 33446U 08061A   22277.41731784  .00001111  00000+0  16256-3 0  9996
2 33446  97.8234 214.2653 0017081 137.5212 222.7324 14.77488441745686
DEIMOS-1                
1 35681U 09041A   22277.42352602  .00000386  00000+0  68588-4 0  9996
2 35681  97.7029 122.8498 0000657 157.5589 202.5657 14.72121338707802
UK-DMC 2                
1 35683U 09041C   22277.49570035  .00000656  00000+0  11315-3 0  9992
2 35683  97.7069  84.7278 0000956  71.0118 289.1212 14.71511895707549
RISAT 1                 
1 38248U 12017A   22277.57795165  .00006579  00000+0  38084-3 0  9993
2 38248  97.5536 287.7863 0002521 224.9779 135.1248 15.12566440575334
DMC3-FM1                
1 40715U 15032A   22277.56305514  .00000538  00000+0  74024-4 0  9993
2 40715  97.8296 162.1515 0006457 151.5066 208.6506 14.82208104389453
DMC3-FM2                
1 40716U 15032B   22277.58611925  .00000537  00000+0  73837-4 0  9992
2 40716  97.8333 162.8709 0008227 156.9737 203.1852 14.82200731389462
DMC3-FM3                
1 40717U 15032C   22277.53965793  .00000545  00000+0  74821-4 0  9996
2 40717  97.8370 163.7849 0010163 157.1377 203.0293 14.82228592389456
NOAA 15                 
1 25338U 98030A   22277.51596556  .00000210  00000+0  10588-3 0  9990
2 25338  98.6370 305.5889 0009967 345.7849  14.3050 14.26177250268818
DMSP 5D-3 F15 (USA 147) 
1 25991U 99067A   22277.54213880  .00000253  00000+0  15027-3 0  9995
2 25991  99.0616 271.0253 0009188 236.9055 235.3277 14.16576809179233
METEOSAT-8 (MSG-1)      
1 27509U 02040B   22277.03243726  .00000127  00000+0  00000+0 0  9994
2 27509   8.2370  50.0360 0002682 131.7811 243.9956  1.00274394 73692
DMSP 5D-3 F16 (USA 172) 
1 28054U 03048A   22277.53061389  .00000204  00000+0  13216-3 0  9990
2 28054  98.9980 268.9470 0007714  16.8991  92.9018 14.13688953978431
NOAA 18                 
1 28654U 05018A   22277.48557931  .00000252  00000+0  15979-3 0  9993
2 28654  98.9399 347.7888 0014555  27.5575 332.6366 14.12784231895464
METEOSAT-9 (MSG-2)      
1 28912U 05049B   22277.49980201  .00000117  00000+0  00000+0 0  9990
2 28912   6.2614  65.5566 0002061 183.1169 350.1304  1.00274733 61521
EWS-G1 (GOES 13)        
1 29155U 06018A   22276.73296802  .00000026  00000+0  00000+0 0  9999
2 29155   0.8514  95.2915 0006198 116.4152 126.1691  1.00268924 29815
DMSP 5D-3 F17 (USA 191) 
1 29522U 06050A   22277.53633460  .00000202  00000+0  12904-3 0  9993
2 29522  98.7664 290.5433 0009027 315.6153  44.4295 14.14118976821326
FENGYUN 3A              
1 32958U 08026A   22277.50002203  .00000181  00000+0  10704-3 0  9999
2 32958  98.5160 235.7377 0009863  70.0675 290.1563 14.18744297743796
FENGYUN 2E              
1 33463U 08066A   22276.36008030 -.00000211  00000+0  00000+0 0  9991
2 33463   6.1402  64.6442 0000972  40.5160 123.1229  1.00273892 50528
NOAA 19                 
1 33591U 09005A   22277.57005391  .00000211  00000+0  13875-3 0  9995
2 33591  99.1387 313.9533 0013116 239.5278 120.4598 14.12616926703855
GOES 14                 
1 35491U 09033A   22277.58062275 -.00000108  00000+0  00000+0 0  9990
2 35491   0.3533 266.8839 0017904 307.2064 263.8263  1.00272380 48604
METEOR-M 1              
1 35865U 09049A   22277.50290261  .00000197  00000+0  10753-3 0  9999
2 35865  98.5422 244.5200 0001140 274.5027  85.6021 14.22361601677186
DMSP 5D-3 F18 (USA 210) 
1 35951U 09057A   22277.55372917  .00000289  00000+0  17587-3 0  9992
2 35951  98.7350 254.3114 0011826 131.6858 228.5328 14.13563328668520
GOES 15                 
1 36411U 10008A   22277.55224149  .00000040  00000+0  00000+0 0  9998
2 36411   0.3137 277.9247 0004381 249.5849 276.3317  1.00265984 46101
COMS 1                  
1 36744U 10032A   22276.78397868 -.00000355  00000+0  00000+0 0  9997
2 36744   1.3526  91.9057 0000913  91.0995 239.8583  1.00271422 37524
